SL-3 R/B                
1 13403U 82079B   26049.83105450  .00005013  00000+0  20129-3 0  9999
2 13403  81.1449 215.3392 0024316 229.0675 130.8453 15.24495531374829
SL-14 R/B               
1 13553U 82092B   26049.80794806  .00000488  00000+0  51994-4 0  9992
2 13553  82.5710 159.0551 0020456   8.3001 108.0218 14.86645118326125
SL-3 R/B                
1 13819U 83010B   26049.40818812  .00014860  00000+0  30577-3 0  9990
2 13819  81.1032  25.8715 0018557 111.6980 248.6242 15.45625800354960
SL-3 R/B                
1 14208U 83075B   26049.88622225  .00010770  00000+0  28924-3 0  9996
2 14208  97.6130  53.7603 0019940 300.0572  59.8694 15.37919973327262
COSMOS 1536             
1 14699U 84013A   26049.67492795  .00005263  00000+0  21833-3 0  9990
2 14699  82.5463 126.7464 0013927 355.4845   4.6264 15.23555565269725
SL-14 R/B               
1 14820U 84027B   26049.63653054  .00000397  00000+0  42547-4 0  9993
2 14820  82.5385 262.8871 0018960  40.3150 319.9468 14.85956289244804
SL-8 R/B                
1 15483U 85006B   26049.87432367  .00000177  00000+0  67396-4 0  9990
2 15483  74.0455 295.7717 0019186 217.5077 218.6930 14.37773477151321
SL-12 R/B(2)            
1 15772U 85042D   26049.63911882  .00000122  00000+0  76225-4 0  9990
2 15772  71.1081 127.9783 0034311 158.9926 306.5241 14.21976991111688
SL-14 R/B               
1 15945U 85069B   26049.49243921  .00000511  00000+0  55065-4 0  9998
2 15945  82.5249  42.9866 0017180 255.0251 104.9064 14.86409225169986
SL-16 R/B               
1 16182U 85097B   26049.78878189 -.00000010  00000+0  18853-4 0  9994
2 16182  71.0027 180.3424 0009712 281.3309 184.8908 14.16594339 84559
SL-14 R/B               
1 16496U 86006B   26049.67643909  .00000592  00000+0  60290-4 0  9997
2 16496  82.5249 277.6352 0076034 336.8582  22.9215 14.86789080146389
COSMOS 1743             
1 16719U 86034A   26049.56409713  .00030965  00000+0  42575-3 0  9999
2 16719  82.5306  93.8818 0004138  22.8959 337.2479 15.57119284177270
