CCSDS_OMM_VERS = 2.0
CREATION_DATE  = 
ORIGINATOR     = 

OBJECT_NAME    = SL-3 R/B
OBJECT_ID      = 1982-079B
CENTER_NAME    = EARTH
REF_FRAME      = TEME
TIME_SYSTEM    = UTC
MEAN_ELEMENT_THEORY = SGP/SGP4

EPOCH          = 2026-02-18T19:56:43.108800
MEAN_MOTION    = 15.24495531
ECCENTRICITY   = .0024316
INCLINATION    = 81.1449
RA_OF_ASC_NODE = 215.3392
ARG_OF_PERICENTER = 229.0675
MEAN_ANOMALY   = 130.8453

EPHEMERIS_TYPE = 0
CLASSIFICATION_TYPE = U
NORAD_CAT_ID   = 13403
ELEMENT_SET_NO = 999
REV_AT_EPOCH   = 37482
BSTAR          = .20129E-3
MEAN_MOTION_DOT = .5013E-4
MEAN_MOTION_DDOT = 0

CCSDS_OMM_VERS = 2.0
CREATION_DATE  = 
ORIGINATOR     = 

OBJECT_NAME    = SL-14 R/B
OBJECT_ID      = 1982-092B
CENTER_NAME    = EARTH
REF_FRAME      = TEME
TIME_SYSTEM    = UTC
MEAN_ELEMENT_THEORY = SGP/SGP4

EPOCH          = 2026-02-18T19:23:26.712384
MEAN_MOTION    = 14.86645118
ECCENTRICITY   = .0020456
INCLINATION    = 82.5710
RA_OF_ASC_NODE = 159.0551
ARG_OF_PERICENTER = 8.3001
MEAN_ANOMALY   = 108.0218

EPHEMERIS_TYPE = 0
CLASSIFICATION_TYPE = U
NORAD_CAT_ID   = 13553
ELEMENT_SET_NO = 999
REV_AT_EPOCH   = 32612
BSTAR          = .51994E-4
MEAN_MOTION_DOT = .488E-5
MEAN_MOTION_DDOT = 0

CCSDS_OMM_VERS = 2.0
CREATION_DATE  = 
ORIGINATOR     = 

OBJECT_NAME    = SL-3 R/B
OBJECT_ID      = 1983-010B
CENTER_NAME    = EARTH
REF_FRAME      = TEME
TIME_SYSTEM    = UTC
MEAN_ELEMENT_THEORY = SGP/SGP4

EPOCH          = 2026-02-18T09:47:47.453568
MEAN_MOTION    = 15.45625800
ECCENTRICITY   = .0018557
INCLINATION    = 81.1032
RA_OF_ASC_NODE = 25.8715
ARG_OF_PERICENTER = 111.6980
MEAN_ANOMALY   = 248.6242

EPHEMERIS_TYPE = 0
CLASSIFICATION_TYPE = U
NORAD_CAT_ID   = 13819
ELEMENT_SET_NO = 999
REV_AT_EPOCH   = 35496
BSTAR          = .30577E-3
MEAN_MOTION_DOT = .1486E-3
MEAN_MOTION_DDOT = 0

CCSDS_OMM_VERS = 2.0
CREATION_DATE  = 
ORIGINATOR     = 

OBJECT_NAME    = SL-3 R/B
OBJECT_ID      = 1983-075B
CENTER_NAME    = EARTH
REF_FRAME      = TEME
TIME_SYSTEM    = UTC
MEAN_ELEMENT_THEORY = SGP/SGP4

EPOCH          = 2026-02-18T21:16:09.602400
MEAN_MOTION    = 15.37919973
ECCENTRICITY   = .001994
INCLINATION    = 97.6130
RA_OF_ASC_NODE = 53.7603
ARG_OF_PERICENTER = 300.0572
MEAN_ANOMALY   = 59.8694

EPHEMERIS_TYPE = 0
CLASSIFICATION_TYPE = U
NORAD_CAT_ID   = 14208
ELEMENT_SET_NO = 999
REV_AT_EPOCH   = 32726
BSTAR          = .28924E-3
MEAN_MOTION_DOT = .1077E-3
MEAN_MOTION_DDOT = 0

CCSDS_OMM_VERS = 2.0
CREATION_DATE  = 
ORIGINATOR     = 

OBJECT_NAME    = COSMOS 1536
OBJECT_ID      = 1984-013A
CENTER_NAME    = EARTH
REF_FRAME      = TEME
TIME_SYSTEM    = UTC
MEAN_ELEMENT_THEORY = SGP/SGP4

EPOCH          = 2026-02-18T16:11:53.774880
MEAN_MOTION    = 15.23555565
ECCENTRICITY   = .0013927
INCLINATION    = 82.5463
RA_OF_ASC_NODE = 126.7464
ARG_OF_PERICENTER = 355.4845
MEAN_ANOMALY   = 4.6264

EPHEMERIS_TYPE = 0
CLASSIFICATION_TYPE = U
NORAD_CAT_ID   = 14699
ELEMENT_SET_NO = 999
REV_AT_EPOCH   = 26972
BSTAR          = .21833E-3
MEAN_MOTION_DOT = .5263E-4
MEAN_MOTION_DDOT = 0

CCSDS_OMM_VERS = 2.0
CREATION_DATE  = 
ORIGINATOR     = 

OBJECT_NAME    = SL-14 R/B
OBJECT_ID      = 1984-027B
CENTER_NAME    = EARTH
REF_FRAME      = TEME
TIME_SYSTEM    = UTC
MEAN_ELEMENT_THEORY = SGP/SGP4

EPOCH          = 2026-02-18T15:16:36.238656
MEAN_MOTION    = 14.85956289
ECCENTRICITY   = .001896
INCLINATION    = 82.5385
RA_OF_ASC_NODE = 262.8871
ARG_OF_PERICENTER = 40.3150
MEAN_ANOMALY   = 319.9468

EPHEMERIS_TYPE = 0
CLASSIFICATION_TYPE = U
NORAD_CAT_ID   = 14820
ELEMENT_SET_NO = 999
REV_AT_EPOCH   = 24480
BSTAR          = .42547E-4
MEAN_MOTION_DOT = .397E-5
MEAN_MOTION_DDOT = 0

CCSDS_OMM_VERS = 2.0
CREATION_DATE  = 
ORIGINATOR     = 

OBJECT_NAME    = SL-8 R/B
OBJECT_ID      = 1985-006B
CENTER_NAME    = EARTH
REF_FRAME      = TEME
TIME_SYSTEM    = UTC
MEAN_ELEMENT_THEORY = SGP/SGP4

EPOCH          = 2026-02-18T20:59:01.565088
MEAN_MOTION    = 14.37773477
ECCENTRICITY   = .0019186
INCLINATION    = 74.0455
RA_OF_ASC_NODE = 295.7717
ARG_OF_PERICENTER = 217.5077
MEAN_ANOMALY   = 218.6930

EPHEMERIS_TYPE = 0
CLASSIFICATION_TYPE = U
NORAD_CAT_ID   = 15483
ELEMENT_SET_NO = 999
REV_AT_EPOCH   = 15132
BSTAR          = .67396E-4
MEAN_MOTION_DOT = .177E-5
MEAN_MOTION_DDOT = 0

CCSDS_OMM_VERS = 2.0
CREATION_DATE  = 
ORIGINATOR     = 

OBJECT_NAME    = SL-12 R/B(2)
OBJECT_ID      = 1985-042D
CENTER_NAME    = EARTH
REF_FRAME      = TEME
TIME_SYSTEM    = UTC
MEAN_ELEMENT_THEORY = SGP/SGP4

EPOCH          = 2026-02-18T15:20:19.866048
MEAN_MOTION    = 14.21976991
ECCENTRICITY   = .0034311
INCLINATION    = 71.1081
RA_OF_ASC_NODE = 127.9783
ARG_OF_PERICENTER = 158.9926
MEAN_ANOMALY   = 306.5241

EPHEMERIS_TYPE = 0
CLASSIFICATION_TYPE = U
NORAD_CAT_ID   = 15772
ELEMENT_SET_NO = 999
REV_AT_EPOCH   = 11168
BSTAR          = .76225E-4
MEAN_MOTION_DOT = .122E-5
MEAN_MOTION_DDOT = 0

CCSDS_OMM_VERS = 2.0
CREATION_DATE  = 
ORIGINATOR     = 

OBJECT_NAME    = SL-14 R/B
OBJECT_ID      = 1985-069B
CENTER_NAME    = EARTH
REF_FRAME      = TEME
TIME_SYSTEM    = UTC
MEAN_ELEMENT_THEORY = SGP/SGP4

EPOCH          = 2026-02-18T11:49:06.747744
MEAN_MOTION    = 14.86409225
ECCENTRICITY   = .001718
INCLINATION    = 82.5249
RA_OF_ASC_NODE = 42.9866
ARG_OF_PERICENTER = 255.0251
MEAN_ANOMALY   = 104.9064

EPHEMERIS_TYPE = 0
CLASSIFICATION_TYPE = U
NORAD_CAT_ID   = 15945
ELEMENT_SET_NO = 999
REV_AT_EPOCH   = 16998
BSTAR          = .55065E-4
MEAN_MOTION_DOT = .511E-5
MEAN_MOTION_DDOT = 0

CCSDS_OMM_VERS = 2.0
CREATION_DATE  = 
ORIGINATOR     = 

OBJECT_NAME    = SL-16 R/B
OBJECT_ID      = 1985-097B
CENTER_NAME    = EARTH
REF_FRAME      = TEME
TIME_SYSTEM    = UTC
MEAN_ELEMENT_THEORY = SGP/SGP4

EPOCH          = 2026-02-18T18:55:50.755296
MEAN_MOTION    = 14.16594339
ECCENTRICITY   = .0009712
INCLINATION    = 71.0027
RA_OF_ASC_NODE = 180.3424
ARG_OF_PERICENTER = 281.3309
MEAN_ANOMALY   = 184.8908

EPHEMERIS_TYPE = 0
CLASSIFICATION_TYPE = U
NORAD_CAT_ID   = 16182
ELEMENT_SET_NO = 999
REV_AT_EPOCH   = 8455
BSTAR          = .18853E-4
MEAN_MOTION_DOT = -.1E-6
MEAN_MOTION_DDOT = 0

CCSDS_OMM_VERS = 2.0
CREATION_DATE  = 
ORIGINATOR     = 

OBJECT_NAME    = SL-14 R/B
OBJECT_ID      = 1986-006B
CENTER_NAME    = EARTH
REF_FRAME      = TEME
TIME_SYSTEM    = UTC
MEAN_ELEMENT_THEORY = SGP/SGP4

EPOCH          = 2026-02-18T16:14:04.337376
MEAN_MOTION    = 14.86789080
ECCENTRICITY   = .0076034
INCLINATION    = 82.5249
RA_OF_ASC_NODE = 277.6352
ARG_OF_PERICENTER = 336.8582
MEAN_ANOMALY   = 22.9215

EPHEMERIS_TYPE = 0
CLASSIFICATION_TYPE = U
NORAD_CAT_ID   = 16496
ELEMENT_SET_NO = 999
REV_AT_EPOCH   = 14638
BSTAR          = .6029E-4
MEAN_MOTION_DOT = .592E-5
MEAN_MOTION_DDOT = 0

CCSDS_OMM_VERS = 2.0
CREATION_DATE  = 
ORIGINATOR     = 

OBJECT_NAME    = COSMOS 1743
OBJECT_ID      = 1986-034A
CENTER_NAME    = EARTH
REF_FRAME      = TEME
TIME_SYSTEM    = UTC
MEAN_ELEMENT_THEORY = SGP/SGP4

EPOCH          = 2026-02-18T13:32:17.992032
MEAN_MOTION    = 15.57119284
ECCENTRICITY   = .0004138
INCLINATION    = 82.5306
RA_OF_ASC_NODE = 93.8818
ARG_OF_PERICENTER = 22.8959
MEAN_ANOMALY   = 337.2479

EPHEMERIS_TYPE = 0
CLASSIFICATION_TYPE = U
NORAD_CAT_ID   = 16719
ELEMENT_SET_NO = 999
REV_AT_EPOCH   = 17727
BSTAR          = .42575E-3
MEAN_MOTION_DOT = .30965E-3
MEAN_MOTION_DDOT = 0

